<?xml version="1.0" encoding="utf-8" ?>
<kml xmlns="http://www.opengis.net/kml/2.2">
<Document id="root_doc">
<Schema name="distrito_utm" id="distrito_utm">
	<SimpleField name="id" type="string"></SimpleField>
	<SimpleField name="descriptio" type="string"></SimpleField>
	<SimpleField name="timestamp" type="string"></SimpleField>
	<SimpleField name="begin" type="string"></SimpleField>
	<SimpleField name="end" type="string"></SimpleField>
	<SimpleField name="altitudeMo" type="string"></SimpleField>
	<SimpleField name="tessellate" type="float"></SimpleField>
	<SimpleField name="extrude" type="float"></SimpleField>
	<SimpleField name="visibility" type="float"></SimpleField>
	<SimpleField name="drawOrder" type="float"></SimpleField>
	<SimpleField name="icon" type="string"></SimpleField>
</Schema>
<Folder><name>distrito_utm</name>
  <Placemark id="distrito_utm.1">
	<name>poligono_dt.1</name>
	<Style><LineStyle><color>ff0000ff</color></LineStyle><PolyStyle><fill>0</fill></PolyStyle></Style>
	<ExtendedData><SchemaData schemaUrl="#distrito_utm">
		<SimpleData name="tessellate">-1</SimpleData>
		<SimpleData name="extrude">0</SimpleData>
		<SimpleData name="visibility">-1</SimpleData>
	</SchemaData></ExtendedData>
      <MultiGeometry><Polygon><outerBoundaryIs><LinearRing><coordinates>-100.29673686,25.64198146 -100.29725171,25.64431436 -100.29740655,25.64971981 -100.29999239,25.65267892 -100.29819043,25.66071142 -100.29767171,25.6600694 -100.29737364,25.6599717 -100.297273,25.66009731 -100.29729235,25.66259908 -100.29351424,25.66190299 -100.2934523,25.66140752 -100.29144711,25.66019327 -100.29017161,25.659874 -100.28244118,25.66020722 -100.27890307,25.66026305 -100.27512495,25.6600537 -100.27337912,25.658979 -100.27317202,25.65894585 -100.27245588,25.65909589 -100.27204168,25.65932269 -100.2697481,25.66067478 -100.26900486,25.66029097 -100.26898164,25.65986528 -100.26970939,25.65973268 -100.27070811,25.65916044 -100.27225652,25.65769493 -100.27362686,25.65629919 -100.27392106,25.65572694 -100.27344105,25.65418462 -100.27245007,25.6531657 -100.27248104,25.65298425 -100.27522559,25.65088706 -100.27497591,25.65053636 -100.27522366,25.65036712 -100.27615658,25.64999723 -100.27654368,25.64942494 -100.27677594,25.64883869 -100.27837467,25.64814426 -100.27871532,25.64753358 -100.27899403,25.64697175 -100.27925339,25.64680076 -100.27986695,25.64651112 -100.28037792,25.64631046 -100.28114632,25.6458917 -100.2824044,25.64572071 -100.28319409,25.64543455 -100.28237344,25.64424107 -100.28139794,25.64373157 -100.28578768,25.6412678 -100.28668575,25.6424962 -100.28739802,25.64230077 -100.28837352,25.64257996 -100.2892716,25.64301269 -100.28973612,25.64343146 -100.29023161,25.64344542 -100.29049484,25.64344542 -100.2911142,25.64285914 -100.29136195,25.64189596 -100.29207422,25.6411282 -100.29283294,25.6407513 -100.29331294,25.64072338 -100.29370005,25.64100257 -100.29373101,25.64175637 -100.29439683,25.64220306 -100.2964446,25.64196226 -100.29673686,25.64198146</coordinates></LinearRing></outerBoundaryIs></Polygon></MultiGeometry>
  </Placemark>
</Folder>
</Document></kml>
